{
  "type": "FeatureCollection",
  "crs": {
    "type": "name",
    "properties": {"name": "urn:ogc:def:crs:OGC:1.3:CRS84"}
  },
  "features": [
    {
      "type": "Feature",
      "properties": {
        "block_id": "BLK-001",
        "estate": "Kalimantan Timur Estate A",
        "planting_year": 2012,
        "variety": "Tenera"
      },
      "geometry": {
        "type": "Polygon",
        "coordinates": [[
          [117.120, -0.540],
          [117.135, -0.540],
          [117.135, -0.525],
          [117.120, -0.525],
          [117.120, -0.540]
        ]]
      }
    },
    {
      "type": "Feature",
      "properties": {
        "block_id": "BLK-002",
        "estate": "Kalimantan Timur Estate A",
        "planting_year": 2010,
        "variety": "Tenera"
      },
      "geometry": {
        "type": "Polygon",
        "coordinates": [[
          [117.135, -0.540],
          [117.150, -0.540],
          [117.150, -0.525],
          [117.135, -0.525],
          [117.135, -0.540]
        ]]
      }
    },
    {
      "type": "Feature",
      "properties": {
        "block_id": "BLK-003",
        "estate": "Kalimantan Timur Estate A",
        "planting_year": 2015,
        "variety": "Tenera"
      },
      "geometry": {
        "type": "Polygon",
        "coordinates": [[
          [117.120, -0.555],
          [117.150, -0.555],
          [117.150, -0.540],
          [117.120, -0.540],
          [117.120, -0.555]
        ]]
      }
    }
  ]
}
